{
  "norad_id": 44233,
  "name": "RISAT-2B",
  "history": [
    {
      "epoch": "2026-03-28T18:00:20.725632Z",
      "apogee_km": 565.9361591724655,
      "perigee_km": 560.55852989307,
      "latitude_deg": 1.1951264904430657e-06,
      "longitude_deg": 14.763338740688965,
      "height_km": 563.469098253864,
      "semi_major_axis_km": 6941.3843445327675,
      "eccentricity": 0.00038736,
      "inclination_deg": 36.9966,
      "raan_deg": 111.0159,
      "arg_perigee_deg": 114.1292,
      "mean_anomaly_deg": 245.9856,
      "mean_motion_rev_day": 15.01182953
    },
    {
      "epoch": "2026-03-29T03:35:01.634208Z",
      "apogee_km": 565.9447986872337,
      "perigee_km": 560.5277509835514,
      "latitude_deg": 2.7847812782306637e-06,
      "longitude_deg": -131.66596730389622,
      "height_km": 563.6504884269414,
      "semi_major_axis_km": 6941.373274835392,
      "eccentricity": 0.0003902,
      "inclination_deg": 36.9966,
      "raan_deg": 108.6504,
      "arg_perigee_deg": 118.4792,
      "mean_anomaly_deg": 241.6344,
      "mean_motion_rev_day": 15.01186544
    },
    {
      "epoch": "2026-03-30T03:31:43.457664Z",
      "apogee_km": 565.9857755045578,
      "perigee_km": 560.418821387203,
      "latitude_deg": 8.814393699980884e-06,
      "longitude_deg": -137.73680733581003,
      "height_km": 564.0563776627972,
      "semi_major_axis_km": 6941.33929844588,
      "eccentricity": 0.000401,
      "inclination_deg": 36.9965,
      "raan_deg": 102.7372,
      "arg_perigee_deg": 128.4568,
      "mean_anomaly_deg": 231.6535,
      "mean_motion_rev_day": 15.01197566
    }
  ]
}